STARLINK-36416          
1 67630U 26020P   26154.54198682  .00046101  00000+0  16682-2 0  9999
2 67630  43.0053  14.9335 0002945 258.6169 101.4352 15.27697980 19247
STARLINK-36527          
1 67631U 26020Q   26152.02404825  .00023918  00000+0  87549-3 0  9992
2 67631  43.0023  29.5722 0001540 269.6333  90.4342 15.27594236 18854
STARLINK-36633          
1 67632U 26020R   26155.93310711  .00010008  00000+0  37272-3 0  9990
2 67632  43.0041   7.3071 0001305 294.0381  66.0334 15.27579115 19456
STARLINK-36637          
1 67633U 26020S   26155.65228424  .00013945  00000+0  51491-3 0  9991
2 67633  43.0071   8.6459 0003487 302.4847  57.5667 15.27603557 19416
STARLINK-36617          
1 67634U 26020T   26152.94205397  .00035835  00000+0  13060-2 0  9996
2 67634  43.0008  24.4230 0001422 255.0705 104.9989 15.27565610 18996
STARLINK-36627          
1 67635U 26020U   26155.70996327  .00019255  00000+0  70762-3 0  9995
2 67635  43.0030   8.2137 0001380 247.0482 113.0224 15.27569825 19428
STARLINK-36624          
1 67636U 26020V   26152.94574546  .00023991  00000+0  87813-3 0  9991
2 67636  43.0016  23.5707 0001384  62.4704 297.6288 15.27594587 19002
STARLINK-36610          
1 67637U 26020W   26155.77920527  .00035336  00000+0  12876-2 0  9992
2 67637  43.0035   7.8714 0001433 272.7488  87.3200 15.27577798 19437
STARLINK-36599          
1 67638U 26020X   26152.02276579  .00023195  00000+0  84942-3 0  9993
2 67638  43.0030  29.5530 0001191 278.0506  82.0210 15.27593734 18857
STARLINK-36595          
1 67639U 26020Y   26155.72152202  .00020494  00000+0  75065-3 0  9995
2 67639  43.0039   8.2914 0002216 262.8708  97.1892 15.27646448 19429
STARLINK-36570          
1 67640U 26020Z   26154.46118641  .00032983  00000+0  12000-2 0  9991
2 67640  43.0042  15.1768 0001691 254.9955 105.0710 15.27655471 19234
STARLINK-36514          
1 67641U 26020AA  26154.70102755  .00035287  00000+0  12821-2 0  9999
2 67641  43.0014  14.3900 0001843 272.2351  87.8290 15.27672056 19266
STARLINK-36556          
1 67642U 26020AB  26152.93173633  .00021235  00000+0  77808-3 0  9991
2 67642  42.9997  24.3366 0001210 236.7034 123.3702 15.27617194 18998
STARLINK-36533          
1 67643U 26020AC  26154.53044300  .00019843  00000+0  72801-3 0  9998
2 67643  43.0054  14.8422 0002347 279.7954  80.2633 15.27608061 19248
STARLINK-36623          
1 67644U 26020AD  26154.84708571  .00031053  00000+0  11310-2 0  9994
2 67644  43.0039  12.9104 0001558 256.5560 103.5118 15.27642509 19294
STARLINK-36619          
1 67645U 26020AE  26152.94957993  .00019005  00000+0  69765-3 0  9999
2 67645  43.0028  23.6069 0001243 247.3150 112.7571 15.27613443 19005
ALSAT-3B                
1 67646U 26021A   26155.74353149  .00007038  00000+0  29906-3 0  9991
2 67646  97.4586 229.5854 0014842 203.2684 156.7883 15.23268454 18972
STARLINK-36719          
1 67648U 26022A   26155.64233260  .00021039  00000+0  65223-3 0  9993
2 67648  97.2833 188.6781 0001186  78.7862 281.3515 15.33443345 18894
STARLINK-36342          
1 67649U 26022B   26155.64109046  .00019588  00000+0  60750-3 0  9994
2 67649  97.2844 189.7480 0000789  60.0810 300.0511 15.33444459 18960
STARLINK-36703          
1 67650U 26022C   26155.08765762  .00024104  00000+0  74614-3 0  9991
2 67650  97.2836 188.2056 0001379  80.4321 279.7077 15.33462893 18810
STARLINK-36696          
1 67651U 26022D   26155.10397292  .00030849  00000+0  95353-3 0  9990
2 67651  97.2830 188.1853 0001542  95.8291 264.3128 15.33460162 18811
STARLINK-36699          
1 67652U 26022E   26155.65864086  .00030556  00000+0  94465-3 0  9999
2 67652  97.2861 188.8076 0001044 298.3470  61.7667 15.33456639 18907
STARLINK-36694          
1 67653U 26022F   26155.63417454  .00023792  00000+0  73678-3 0  9998
2 67653  97.2851 188.6879 0001015  69.0438 291.0913 15.33452518 18893
STARLINK-36620          
1 67654U 26022G   26155.09581510  .00031212  00000+0  96459-3 0  9992
2 67654  97.2831 188.1961 0001342  98.5820 261.5575 15.33462508 18812
STARLINK-36720          
1 67655U 26022H   26155.66680292  .00025973  00000+0  80402-3 0  9991
2 67655  97.2835 188.7929 0000884  80.8957 279.2386 15.33447747 18906
STARLINK-36688          
1 67656U 26022J   26155.65048936  .00020895  00000+0  64772-3 0  9994
2 67656  97.2816 188.8198 0001282  78.8646 281.2741 15.33447222 18906
STARLINK-36706          
1 67657U 26022K   26155.43296805  .00038557  00000+0  11903-2 0  9992
2 67657  97.2821 188.4959 0000884  47.4393 312.6924 15.33450416 18868
STARLINK-36701          
1 67658U 26022L   26155.09853728  .00026878  00000+0  83162-3 0  9998
2 67658  97.2840 188.1947 0001219  49.8731 310.2618 15.33456065 18814
STARLINK-36642          
1 67659U 26022M   26155.67767392  .00035977  00000+0  11113-2 0  9990
2 67659  97.2869 188.7816 0001104 327.8818  32.2357 15.33446993 18905
STARLINK-36673          
1 67660U 26022N   26155.66951858  .00024078  00000+0  74566-3 0  9995
2 67660  97.2864 188.7902 0000420 227.7870 132.3337 15.33449274 18909
