OBJECT_NAME,OBJECT_ID,EPOCH,MEAN_MOTION,ECCENTRICITY,INCLINATION,RA_OF_ASC_NODE,ARG_OF_PERICENTER,MEAN_ANOMALY,EPHEMERIS_TYPE,CLASSIFICATION_TYPE,NORAD_CAT_ID,ELEMENT_SET_NO,REV_AT_EPOCH,BSTAR,MEAN_MOTION_DOT,MEAN_MOTION_DDOT
STARLINK-36416,2026-020P,2026-06-03T13:00:27.661248,15.27697980,.00029454,43.0053,14.9335,258.6169,101.4352,0,U,67630,999,1924,.16682388E-2,.46101E-3,0
STARLINK-36527,2026-020Q,2026-06-01T00:34:37.768800,15.27594236,.000154,43.0023,29.5722,269.6333,90.4342,0,U,67631,999,1885,.87548675E-3,.23918E-3,0
STARLINK-36633,2026-020R,2026-06-04T22:23:40.454304,15.27579115,.00013051,43.0041,7.3071,294.0381,66.0334,0,U,67632,999,1945,.37272074E-3,.10008E-3,0
STARLINK-36637,2026-020S,2026-06-04T15:39:17.358336,15.27603557,.00034875,43.0071,8.6459,302.4847,57.5667,0,U,67633,999,1941,.51490503E-3,.13945E-3,0
STARLINK-36617,2026-020T,2026-06-01T22:36:33.463008,15.27565610,.00014229,43.0008,24.4230,255.0705,104.9989,0,U,67634,999,1899,.13059837E-2,.35835E-3,0
STARLINK-36627,2026-020U,2026-06-04T17:02:20.826528,15.27569825,.00013809,43.0030,8.2137,247.0482,113.0224,0,U,67635,999,1942,.70761552E-3,.19255E-3,0
STARLINK-36624,2026-020V,2026-06-01T22:41:52.407744,15.27594587,.00013844,43.0016,23.5707,62.4704,297.6288,0,U,67636,999,1900,.87812715E-3,.23991E-3,0
STARLINK-36610,2026-020W,2026-06-04T18:42:03.335328,15.27577798,.00014338,43.0035,7.8714,272.7488,87.3200,0,U,67637,999,1943,.12875559E-2,.35336E-3,0
STARLINK-36599,2026-020X,2026-06-01T00:32:46.964256,15.27593734,.00011914,43.0030,29.5530,278.0506,82.0210,0,U,67638,999,1885,.84941585E-3,.23195E-3,0
STARLINK-36595,2026-020Y,2026-06-04T17:18:59.502528,15.27646448,.00022168,43.0039,8.2914,262.8708,97.1892,0,U,67639,999,1942,.75065418E-3,.20494E-3,0
STARLINK-36570,2026-020Z,2026-06-03T11:04:06.505824,15.27655471,.0001691,43.0042,15.1768,254.9955,105.0710,0,U,67640,999,1923,.11999742E-2,.32983E-3,0
STARLINK-36514,2026-020AA,2026-06-03T16:49:28.780320,15.27672056,.00018432,43.0014,14.3900,272.2351,87.8290,0,U,67641,999,1926,.12820854E-2,.35287E-3,0
STARLINK-36556,2026-020AB,2026-06-01T22:21:42.018912,15.27617194,.00012103,42.9997,24.3366,236.7034,123.3702,0,U,67642,999,1899,.77808412E-3,.21235E-3,0
STARLINK-36533,2026-020AC,2026-06-03T12:43:50.275200,15.27608061,.0002347,43.0054,14.8422,279.7954,80.2633,0,U,67643,999,1924,.72800833E-3,.19843E-3,0
STARLINK-36623,2026-020AD,2026-06-03T20:19:48.205344,15.27642509,.00015584,43.0039,12.9104,256.5560,103.5118,0,U,67644,999,1929,.11310495E-2,.31053E-3,0
STARLINK-36619,2026-020AE,2026-06-01T22:47:23.705952,15.27613443,.00012436,43.0028,23.6069,247.3150,112.7571,0,U,67645,999,1900,.69765493E-3,.19005E-3,0
ALSAT-3B,2026-021A,2026-06-04T17:50:41.120736,15.23268454,.00148429,97.4586,229.5854,203.2684,156.7883,0,U,67646,999,1897,.29905965E-3,.7038E-4,0
STARLINK-36719,2026-022A,2026-06-04T15:24:57.536640,15.33443345,.00011866,97.2833,188.6781,78.7862,281.3515,0,U,67648,999,1889,.65223234E-3,.21039E-3,0
STARLINK-36342,2026-022B,2026-06-04T15:23:10.215744,15.33444459,.00007891,97.2844,189.7480,60.0810,300.0511,0,U,67649,999,1896,.60749866E-3,.19588E-3,0
STARLINK-36703,2026-022C,2026-06-04T02:06:13.618368,15.33462893,.0001379,97.2836,188.2056,80.4321,279.7077,0,U,67650,999,1881,.74614E-3,.24104E-3,0
STARLINK-36696,2026-022D,2026-06-04T02:29:43.260288,15.33460162,.0001542,97.2830,188.1853,95.8291,264.3128,0,U,67651,999,1881,.95353E-3,.30849E-3,0
STARLINK-36699,2026-022E,2026-06-04T15:48:26.570304,15.33456639,.00010445,97.2861,188.8076,298.3470,61.7667,0,U,67652,999,1890,.94464701E-3,.30556E-3,0
STARLINK-36694,2026-022F,2026-06-04T15:13:12.680256,15.33452518,.00010156,97.2851,188.6879,69.0438,291.0913,0,U,67653,999,1889,.7367846E-3,.23792E-3,0
STARLINK-36620,2026-022G,2026-06-04T02:17:58.424640,15.33462508,.0001342,97.2831,188.1961,98.5820,261.5575,0,U,67654,999,1881,.96459E-3,.31212E-3,0
STARLINK-36720,2026-022H,2026-06-04T16:00:11.772288,15.33447747,.00008847,97.2835,188.7929,80.8957,279.2386,0,U,67655,999,1890,.80401807E-3,.25973E-3,0
STARLINK-36688,2026-022J,2026-06-04T15:36:42.280704,15.33447222,.00012824,97.2816,188.8198,78.8646,281.2741,0,U,67656,999,1890,.64772151E-3,.20895E-3,0
STARLINK-36706,2026-022K,2026-06-04T10:23:28.439520,15.33450416,.0000884,97.2821,188.4959,47.4393,312.6924,0,U,67657,999,1886,.11903482E-2,.38557E-3,0
STARLINK-36701,2026-022L,2026-06-04T02:21:53.620992,15.33456065,.0001219,97.2840,188.1947,49.8731,310.2618,0,U,67658,999,1881,.83162E-3,.26878E-3,0
STARLINK-36642,2026-022M,2026-06-04T16:15:51.026688,15.33446993,.00011049,97.2869,188.7816,327.8818,32.2357,0,U,67659,999,1890,.11113494E-2,.35977E-3,0
STARLINK-36673,2026-022N,2026-06-04T16:04:06.405312,15.33449274,.00004208,97.2864,188.7902,227.7870,132.3337,0,U,67660,999,1890,.74566447E-3,.24078E-3,0
